[{"OBJECT_NAME":"LKW-1","OBJECT_ID":"2017-077A","EPOCH":"2026-03-09T23:46:54.269760","MEAN_MOTION":15.23569891,"ECCENTRICITY":0.00030108,"INCLINATION":97.1124,"RA_OF_ASC_NODE":108.4614,"ARG_OF_PERICENTER":155.1803,"MEAN_ANOMALY":204.9581,"EPHEMERIS_TYPE":0,"CLASSIFICATION_TYPE":"U","NORAD_CAT_ID":43034,"ELEMENT_SET_NO":999,"REV_AT_EPOCH":45959,"BSTAR":0.0002203455,"MEAN_MOTION_DOT":5.204e-5,"MEAN_MOTION_DDOT":0},{"OBJECT_NAME":"ICEYE-X4","OBJECT_ID":"2019-038D","EPOCH":"2026-03-09T23:53:58.416000","MEAN_MOTION":15.26985132,"ECCENTRICITY":0.00122769,"INCLINATION":97.8888,"RA_OF_ASC_NODE":96.1923,"ARG_OF_PERICENTER":293.9914,"MEAN_ANOMALY":66.0038,"EPHEMERIS_TYPE":0,"CLASSIFICATION_TYPE":"U","NORAD_CAT_ID":44390,"ELEMENT_SET_NO":999,"REV_AT_EPOCH":36665,"BSTAR":0.00049915294,"MEAN_MOTION_DOT":0.00013179,"MEAN_MOTION_DDOT":0}]
